#dP2024 11 18  0  0  0.00000000      97 __u+U IGS20 FIT  IAC
## 2341  86400.00000000   900.00000000 60632 0.0000000000000
+  117   C06C07C08C09C10C11C12C13C14C16C19C20C21C22C23C24C25
+        C26C27C28C29C30C32C33C34C35C36C37C38C39C40C41C42C43
+        C44C45E02E03E04E05E06E07E08E09E10E11E12E13E14E15E18
+        E19E21E24E25E26E27E29E30E31E33E34E36G02G03G04G05G06
+        G07G08G09G10G11G12G13G14G15G16G17G18G19G20G21G22G23
+        G24G25G26G27G28G29G30G31G32J02J03J04R01R03R04R05R07
+        R08R09R11R12R14R15R16R17R18R19R20R21R22R24R26  0  0
++         7  7  8  7  7  6  6  8  6  7  6  5  5  5  5  5  5
++         6  5  6  6  5  5  5  5  6  6  5  6  6  6  5  6  6
++         5  6  4  4  4  4  4  4  4  4  4  4  4  4  4  4  4
++         4  4  4  4  4  4  4  4  4  4  4  4  3  3  3  3  3
++         3  3  3  3  3  3  3  3  3  4  3  3  3  4  3  3  3
++         3  3  4  3  3  3  3  3  3 11 11 10  7  6  6  6  6
++         6  7  7  6  6  6  6  6  6  7  7  7  7  6  8  0  0
%c M  cc GPS ccc cccc cccc cccc cccc ccccc ccccc ccccc ccccc
%c cc cc ccc ccc cccc cccc cccc cccc ccccc ccccc ccccc ccccc
%f  1.2500000  1.025000000  0.00000000000  0.000000000000000
%f  0.0000000  0.000000000  0.00000000000  0.000000000000000
%i    0    0    0    0      0      0      0      0         0
%i    0    0    0    0      0      0      0      0         0
/* INFORMATION & ANALYSIS CENTER (IAC)            FINAL DATA
/* S/V CLOCKS ARE ALIGNED TO GNSS TIME                      
/* G:C1WC2W R:C1PC2P E:C1XC5X C:C2IC6I J:C1CC2S             
/* PCV:IGS20_2317 OL/AL:FES2004  NONE     YN ORB:CoN CLK:CoN
*  2024 11 18  9 30  0.00000000
PC06 -17827.682577  30593.230927  22751.523555    449.164373
PC07  -5027.315003  39450.143544  14488.265239   -194.472237
PC08  -3666.906206  20247.931826 -36789.435471   -804.367711
PC09 -10767.290854  29390.005981  28434.831633   -648.760708
PC10    583.011847  41579.852549   9016.493961   -288.840329
PC11  18974.027668  -4371.359017 -19908.771165    248.219297
PC12   8231.521503  14683.540238 -22209.324277   -247.132064
PC13   3018.787650  23568.551299 -34587.251628     87.737906
PC14  18601.180507   6369.183575  19827.349630   -442.064890
PC16 -21373.379507  30187.941621  20210.608866     93.679146
PC19 -15360.500409   3874.831425 -22956.339867   -966.873868
PC20 -18892.069447 -14060.911978 -14950.817470   -906.941652
PC21  11224.968345  25373.198084  -3085.578712   -913.940125
PC22  -2820.992848  20835.456518 -18369.821515    182.768504
PC23  12776.056639 -14316.691054 -20261.749946   -889.569232
PC24  24661.602388   8057.137249  10219.587328    762.134441
PC25  26514.527322  -5015.305654  -7082.520206    564.244780
PC26   8837.713345  15489.127858  21433.618365   -378.918692
PC27  -1276.204717 -21533.515198  17691.885095    397.910925
PC28  11608.071744 -24932.750502   4732.944376    309.850906
PC29 -19596.177533  13348.308801  14718.184091    363.797444
PC30 -14578.421792  -6972.108397  22746.320308     30.236969
PC32 -11326.339432 -25293.562936   3236.409700   -807.196537
PC33  15428.897227  -3848.646768  22928.714495   -950.231239
PC34  15593.976779   5091.067106 -22584.493145    566.884193
PC35 -11114.971642  25258.169580  -4041.908194    205.055827
PC36 -26492.242158   4688.747218   7459.608452    223.328702
PC37  -8263.297396 -15737.190989 -21517.540833   -893.412602
PC38 -11524.329175  19345.239859 -35604.152731    191.956535
PC39 -23413.050509  31079.888520  15938.377245    -10.358053
PC40  -9918.003136  37140.647851  17715.427655   -103.239447
PC41   3574.840274 -20190.337404  18970.175130   -889.308936
PC42  18791.054838  15674.148959  13475.980038   -517.840133
PC43  19719.914731 -12400.654455 -15384.592871     92.578915
PC44   2148.362953  21592.986798 -17542.408435    655.853303
PC45 -13435.598529  13954.779985  20087.689059   -169.726773
PE02  17441.405050  21778.424629   9848.688025    175.679974
PE03   7138.611176  24894.896955  14329.608233   -154.248268
PE04 -16187.247617  -5904.337044 -24069.401912    -85.283627
PE05  -5886.604513  28785.759650  -3595.107458   4802.789248
PE06 -17303.782614   5573.206383 -23378.197236    -48.785892
PE07  15643.925079 -15576.964483  19710.912649   -153.493831
PE08  15859.058066   6780.911757  24047.918880   -369.832210
PE09 -15563.769599  15523.556934 -19835.312861   -667.869099
PE10 -27892.155725   6957.719058   7084.859273   -670.684599
PE11 -26131.046813  13472.956413  -3415.312857    716.531173
PE12 -25431.283917    141.694487  15142.537167  -1301.146565
PE13  26351.263217 -13182.460192   2853.654042    -26.939842
PE14  13739.494972  21895.916956 -18504.648840    388.418987
PE15  25067.522593    326.979391 -15724.726892   -139.835058
PE18 -15693.383284  -5263.274993  18950.678877    786.266127
PE19  -5783.637113 -25988.805374 -12939.294891    952.591581
PE21    495.064282 -19173.286191 -22549.881974   -629.025802
PE24 -18855.847464   5108.386414  22228.451663  -1106.321596
PE25   -970.634785  18956.409590  22713.462209     11.355302
PE26  11672.234021 -18860.153538  19611.867292   -208.187200
PE27  18743.783428  -5212.540279 -22305.682881   -507.197805
PE29   5718.314273 -28874.763455   3180.485426    -46.637197
PE30  25691.827159  11614.170088  -8998.425276   -937.860032
PE31 -25716.374422 -11648.884465   8913.142685    -43.375347
PE33  -8631.716633 -13652.048097  24816.828737     16.171180
PE34   9082.178154  13423.467598 -24762.054314   -146.635965
PE36 -12261.646412  18719.747798 -19362.828585   -312.807893
PG02  -7533.841332  18514.105616 -16834.240962   -311.915426
PG03   5490.418460  18255.694893 -18705.872560    602.964056
PG04   -354.156321  26356.672459   2525.531323    481.465093
PG05  10536.302851 -10897.904988  21638.639050   -193.359226
PG06  23901.931881  -3813.184010 -10996.893243   -123.688609
PG07  10060.254171  12357.668748  21819.113971    -19.481668
PG08  -6668.721732  23748.996194   9112.335668    416.664232
PG09   7276.833494  22969.755332  11004.875448    448.950699
PG10 -23802.137565  -9727.118540  -7106.501521   -200.313748
PG11  23286.258566 -12498.612194   2303.179276   -750.536125
PG12    124.242471 -17500.049743 -20276.393507   -552.841404
PG13  13268.940779 -17711.102585  14275.140325    686.507476
PG14  23327.475536  12416.839829  -3675.407055    542.260366
PG15   3207.576389 -24813.882921   8161.736474    229.182212
PG16 -15850.146535   5701.123543  20294.067822   -125.379858
PG17  13359.231736   9126.570399 -20607.854212    554.135940
PG18 -11675.705842 -10501.690378  21484.108805   -660.439620
PG19  15407.657338  -1652.060613 -21666.772222    564.116805
PG20  20264.373213  -4356.953908  16605.234946    368.639438
PG21 -12813.159165  18673.620909 -12539.889034     97.175955
PG22  22524.600863   7535.372728 -11168.080727    -80.280493
PG23 -19856.927561 -16741.070207   6148.553268    365.685507
PG24   8457.103617 -19639.278049 -15958.720349   -479.560787
PG25 -13906.396328 -19136.524783 -12690.241041    498.918109
PG26 -23258.781852  -1316.234547  12929.644989     22.136391
PG27 -12563.396405  15341.415894  17158.092469    -34.681779
PG28 -23116.159059   2663.263842 -12826.375553   -482.550241
PG29  -4538.012050 -23801.722619  10692.265567   -562.894669
PG30  19901.760630   4089.525795  17392.084715   -279.513045
PG31 -24743.678995   9831.809492  -2941.063436   -221.551744
PG32 -14604.165404  -5645.878940 -21262.077163   -572.076142
PJ02 -26254.991388  22475.706960  29373.242808      0.355555
PJ03 -35313.431312  22127.361663  -1593.381180     -6.952432
PJ04 -20108.167556  26449.308420 -20994.922654     21.630991
PR01  -5880.171781  13132.706850 -21066.816875    104.808646
PR03  11218.666393  21090.421192   8892.468103    111.596905
PR04  12444.770679   7298.569519  21054.915972    264.517216
PR05   7368.156993 -10527.018333  22047.665553    140.876945
PR07 -11282.658461 -20981.999935  -9162.138884     95.214265
PR08 -12570.665436  -6986.543161 -21023.142797     -6.240851
PR09   -224.731575 -11491.749758 -22750.230779    221.223407
PR11 -24968.860857  -5163.382254   -301.541619      6.662433
PR12 -17933.674558   4864.716937  17502.217931     47.375541
PR14  17513.376256  10894.415107  15029.953762     27.254923
PR15  25072.234396   4477.789510  -1460.394749     73.998564
PR16  18057.653725  -4703.521118 -17403.371684     30.892274
PR17   5368.454596   9758.015096 -22935.579748    140.911179
PR18  16060.596597  -4321.211666 -19333.448009    172.460447
PR19  19432.234649 -14604.611063  -7706.825805   -298.872487
PR20  10584.920268 -19025.532995  13336.315689   -122.062766
PR21  -4474.713269 -10458.188536  22835.297672   -152.294403
PR22 -16915.144473   4703.314409  18533.628196    -13.845845
PR24  -9107.021353  19585.415379 -13562.860585    -80.600380
PR26 -12809.917615  -8636.231917 -20275.739191   -133.442950
EOF
